STARLINK-4400           
1 53468U 22099D   26068.85751997 -.00000871  00000+0 -63306-4 0  9990
2 53468  97.6032 190.3793 0002019  79.6741 280.4711 15.01246200196003
ICEYE-X45               
1 62705U 25009DA  26068.72395651  .00005708  00000+0  45353-3 0  9998
2 62705  97.8049 154.8158 0000884  73.7941 286.3380 15.00857928 62768
