[{"OBJECT_NAME":"STARLINK-4400","OBJECT_ID":"2022-099D","EPOCH":"2026-03-09T20:34:49.725408","MEAN_MOTION":15.012462,"ECCENTRICITY":0.00020188,"INCLINATION":97.6032,"RA_OF_ASC_NODE":190.3793,"ARG_OF_PERICENTER":79.6741,"MEAN_ANOMALY":280.4711,"EPHEMERIS_TYPE":0,"CLASSIFICATION_TYPE":"U","NORAD_CAT_ID":53468,"ELEMENT_SET_NO":999,"REV_AT_EPOCH":19600,"BSTAR":-6.330616e-5,"MEAN_MOTION_DOT":-8.71e-6,"MEAN_MOTION_DDOT":0},{"OBJECT_NAME":"ICEYE-X45","OBJECT_ID":"2025-009DA","EPOCH":"2026-03-09T17:22:29.842464","MEAN_MOTION":15.00857928,"ECCENTRICITY":8.841e-5,"INCLINATION":97.8049,"RA_OF_ASC_NODE":154.8158,"ARG_OF_PERICENTER":73.7941,"MEAN_ANOMALY":286.338,"EPHEMERIS_TYPE":0,"CLASSIFICATION_TYPE":"U","NORAD_CAT_ID":62705,"ELEMENT_SET_NO":999,"REV_AT_EPOCH":6276,"BSTAR":0.00045352987,"MEAN_MOTION_DOT":5.708e-5,"MEAN_MOTION_DDOT":0}]
